KUIPER-00074            
1 64821U 25151F   25331.19291303  .00001557  00000+0  23325-3 0  9992
2 64821  51.9005  23.8262 0012615 292.2443  67.7181 14.79941175 20265
KUIPER-00075            
1 64822U 25151G   25330.48474721  .00043177  00000+0  10648-2 0  9998
2 64822  51.8761   3.0363 0003886 266.6136  93.4407 15.40109401 20499
KUIPER-00076            
1 64823U 25151H   25331.19026073  .00006135  00000+0  83232-3 0  9994
2 64823  51.9011  26.3335 0004083 282.0692  77.9812 14.79967519 20237
KUIPER-00077            
1 64824U 25151J   25330.44198849  .00005808  00000+0  78981-3 0  9994
2 64824  51.9026  34.6460 0006025 236.0784 123.9606 14.79950496 20053
KUIPER-00078            
1 64825U 25151K   25330.54598605 -.00002804  00000+0 -33834-3 0  9993
2 64825  51.9008  31.6826 0007656 304.8717  55.1525 14.79949062 20107
KUIPER-00079            
1 64826U 25151L   25330.66668981  .00040887  00000+0  53282-2 0  9991
2 64826  51.8987  36.1535 0011590 259.7971 224.6674 14.80139587  3825
KUIPER-00080            
1 64827U 25151M   25330.47306336  .00006314  00000+0  85691-3 0  9991
2 64827  51.9004  36.9966 0005212 273.7485  86.2881 14.79911523 20022
KUIPER-00082            
1 64828U 25151N   25331.19545983  .00003982  00000+0  55035-3 0  9992
2 64828  51.9023  21.3126 0004702 294.8225  65.2248 14.79993007 20301
KUIPER-00083            
1 64829U 25151P   25331.18761649  .00008098  00000+0  10878-2 0  9999
2 64829  51.9007  28.8463 0010617 261.6509  98.3249 14.79989748 21383
KUIPER-00084            
1 64830U 25151Q   25330.63649894 -.00003280  00000+0 -40093-3 0  9990
2 64830  51.9008  41.2687 0011592 232.3172 127.6740 14.79896824 19973
KUIPER-00085            
1 64831U 25151R   25331.16185634 -.00005198  00000+0 -65359-3 0  9999
2 64831  51.9048  21.4739 0007253 269.2964  90.7167 14.79882668 20294
KUIPER-00086            
1 64832U 25151S   25330.47584559  .00010286  00000+0  13664-2 0  9995
2 64832  51.9018  34.4985 0010858 256.6927 103.2825 14.80204060 20054
KUIPER-00087            
1 64833U 25151T   25330.49462588  .00005866  00000+0  79739-3 0  9999
2 64833  51.9001  16.9130 0000427 350.1027   9.9927 14.79952125 20297
KUIPER-00089            
1 64834U 25151U   25331.16670139  .00008445  00000+0  11317-2 0  9991
2 64834  51.9020  18.9465 0001072   2.7270   5.1273 14.80068492  5808
KUIPER-00090            
1 64835U 25151V   25331.16670139 -.00016439  00000+0 -21319-2 0  9999
2 64835  51.8993  10.5031 0004163  10.7894 111.3809 14.79936578  4642
KUIPER-00091            
1 64836U 25151W   25331.09959495 -.00008237  00000+0 -10512-2 0  9997
2 64836  51.9008  16.7445 0007333 315.8555  44.1821 14.79966468 20357
KUIPER-00092            
1 64837U 25151X   25331.15914558  .00005163  00000+0  70478-3 0  9997
2 64837  51.9017  23.9771 0006406 260.8019  99.2219 14.79989355 21470
KUIPER-00093            
1 64838U 25151Y   25330.61615038  .00000887  00000+0  14548-3 0  9993
2 64838  51.9008  28.8677 0013671 267.1863  92.7535 14.79950814 20149
KUIPER-00094            
1 64839U 25151Z   25330.38238687  .00008291  00000+0  60764-3 0  9997
2 64839  51.8908  17.4972 0004845 296.6941  63.3536 15.04284533 20284
KUIPER-00081            
1 65132U 25171A   25331.16670139 -.00913920  00000+0 -51774-1 0  9990
2 65132  51.8857 246.0263 0002916 157.2654  68.6741 15.15268257  2932
KUIPER-00088            
1 65133U 25171B   25331.16670139  .00019119  00000+0  27059-2 0  9996
2 65133  51.8988 258.7312 0008141 136.6026 193.1440 14.77058869  1362
KUIPER-00095            
1 65134U 25171C   25331.16670139 -.00995105  00000+0 -58751-1 0  9999
2 65134  51.8801 246.9759 0006382 135.0177 277.8923 15.14027930  3462
KUIPER-00096            
1 65135U 25171D   25331.16670139  .00019661  00000+0  21873-2 0  9998
2 65135  51.8943 251.6085 0011017 161.8261 114.4129 14.87079236  4928
KUIPER-00097            
1 65136U 25171E   25331.16670139  .00020048  00000+0  24317-2 0  9996
2 65136  51.8999 254.0634 0010690 161.5516 217.2561 14.83511371  3369
KUIPER-00098            
1 65137U 25171F   25330.95915822  .00014035  00000+0  18648-2 0  9993
2 65137  51.8999 257.3634 0007992 152.8268 207.3114 14.79948074 16956
KUIPER-00099            
1 65138U 25171G   25331.16670139 -.00648663  00000+0 -46377-1 0  9998
2 65138  51.9144 248.2397 0006910 181.6498  58.2996 15.06410789  5844
KUIPER-00100            
1 65139U 25171H   25331.16670139 -.00728315  00000+0 -42747-1 0  9999
2 65139  51.9004 247.0182 0002572 184.5244 275.3051 15.13852687  5737
KUIPER-00102            
1 65140U 25171J   25331.16670139  .00003269  00000+0  23967-3 0  9998
2 65140  51.8890 248.1322 0011231 159.2896  41.2984 15.06149803  3928
KUIPER-00103            
1 65141U 25171K   25331.18731738 -.00000543  00000+0 -42066-4 0  9990
2 65141  51.9007 263.8476 0005930 147.1986 212.9346 14.79911593 17532
KUIPER-00104            
1 65142U 25171L   25331.16670139 -.00908537  00000+0 -82660-1 0  9997
2 65142  51.8940 251.1203 0003958 177.7771  95.7720 14.97389324  3837
KUIPER-00105            
1 65143U 25171M   25330.95660083  .00027574  00000+0  36276-2 0  9995
2 65143  51.8996 259.9393 0013170 124.4879 235.7329 14.79920162 17578
KUIPER-00106            
1 65144U 25171N   25331.15884947  .00007955  00000+0  71767-3 0  9992
2 65144  51.8926 260.6214 0009988 117.1053 243.0936 14.96292211 17581
KUIPER-00107            
1 65145U 25171P   25331.16670139  .00051332  00000+0  27145-2 0  9998
2 65145  51.8815 246.0340 0006656 162.7131 354.7580 15.14948899  5290
KUIPER-00108            
1 65146U 25171Q   25331.16670139  .00006611  00000+0  88272-3 0  9998
2 65146  51.8998 253.9495 0008872 138.0006  52.2691 14.80524046  5491
KUIPER-00109            
1 65147U 25171R   25331.16670139 -.01221874  00000+0 -10951+0 0  9997
2 65147  51.8886 249.7425 0011406 150.8184  73.9492 14.98261206  4156
KUIPER-00110            
1 65148U 25171S   25331.15467296 -.00199325  00000+0 -28580-1 0  9998
2 65148  51.8981 261.1884 0010927 127.5932 232.6023 14.77320996 17561
KUIPER-00111            
1 65149U 25171T   25331.08332676  .00043855  00000+0  57562-2 0  9991
2 65149  51.8968 266.7980 0009969 136.0171 224.1586 14.79815057 17489
KUIPER-00112            
1 65150U 25171U   25331.16670139 -.00456391  00000+0 -42939-1 0  9997
2 65150  51.9006 249.6181 0009219 172.2524  14.2984 14.95568458  3988
KUIPER-00114            
1 65151U 25171V   25331.01310088 -.00003312  00000+0 -40567-3 0  9994
2 65151  51.9000 269.6412 0006655 123.6917 236.4681 14.79889141 17433
KUIPER-00115            
1 65152U 25171W   25330.54841185  .00006595  00000+0  89197-3 0  9995
2 65152  51.9004 264.1748 0010606 145.7000 214.4649 14.79972320 17475
KUIPER-00116            
1 65153U 25171X   25330.98202596  .00005569  00000+0  75816-3 0  9994
2 65153  51.8989 267.3050 0010672 112.7655 247.4436 14.79953345 17466
KUIPER-00118            
1 65154U 25171Y   25330.84419525  .00000126  00000+0  45641-4 0  9990
2 65154  51.8982 270.3642 0001955 117.4201 242.6960 14.79937036 17417
KUIPER-00119            
1 65155U 25171Z   25330.99287269  .00003989  00000+0  55143-3 0  9992
2 65155  51.8996 257.2942 0009148 137.2921 222.8753 14.79967283 17609
KUIPER-00120            
1 65762U 25217A   25331.00005786  .00033150  00000+0  32102-2 0  9994
2 65762  51.8928 147.3657 0016250 312.6035 186.6248 14.92341724  1304
KUIPER-00132            
1 65763U 25217B   25330.70982047  .00037673  00000+0  10297-2 0  9990
2 65763  51.8618 142.2581 0005751 318.1019  41.9527 15.37004415  9571
KUIPER-00133            
1 65764U 25217C   25331.16670139 -.00045201  00000+0 -49145-2 0  9990
2 65764  51.8954 146.6024 0010967 343.9572 123.4628 14.87687072  5620
KUIPER-00139            
1 65765U 25217D   25331.16670139 -.01024632  00000+0 -71548-1 0  9998
2 65765  51.8845 143.2609 0007219 324.1507 322.1421 15.07612322  4275
KUIPER-00142            
1 65766U 25217E   25330.73617725  .00035772  00000+0  96143-3 0  9997
2 65766  51.8686 141.7261 0002730 298.2505  61.8206 15.37562399  9586
KUIPER-00145            
1 65767U 25217F   25331.16670139 -.00652323  00000+0 -22605-1 0  9993
2 65767  51.8726 139.9226 0005532 297.0065 142.7576 15.31642122  5787
KUIPER-00147            
1 65768U 25217G   25331.16670139 -.00177536  00000+0 -78974-2 0  9993
2 65768  51.8729 140.6812 0008844 321.2909  79.9214 15.21723051  3550
KUIPER-00148            
1 65769U 25217H   25331.16670139 -.00294314  00000+0 -11696-1 0  9995
2 65769  51.8642 140.8785 0008011 340.5791 352.3514 15.26047196  2098
KUIPER-00150            
1 65770U 25217J   25331.16670139 -.01634977  00000+0 -15012+0 0  9995
2 65770  51.8850 144.7299 0008835 321.3837 209.9965 14.97775672  4088
KUIPER-00151            
1 65771U 25217K   25331.16670139 -.00590614  00000+0 -29123-1 0  9994
2 65771  51.8736 141.0796 0002478 291.3786 335.0465 15.19793812  5189
KUIPER-00152            
1 65772U 25217L   25330.96748667  .00057454  00000+0  14783-2 0  9999
2 65772  51.8702 140.2894 0002493 221.6203 138.4595 15.38690616  9621
KUIPER-00153            
1 65773U 25217M   25330.69100572  .00011100  00000+0  67775-3 0  9995
2 65773  51.8746 146.6234 0011536 323.2195  36.7988 15.10704081  9511
KUIPER-00155            
1 65774U 25217N   25331.00005786  .00048486  00000+0  13276-2 0  9996
2 65774  51.8635 140.8401 0006062 308.8671 232.4520 15.36832136  5207
KUIPER-00156            
1 65775U 25217P   25330.84618169  .00040992  00000+0  10667-2 0  9998
2 65775  51.8695 140.9781 0002706 252.1350 107.9342 15.38496188  9603
KUIPER-00158            
1 65776U 25217Q   25331.16670139 -.00218942  00000+0 -12211-1 0  9990
2 65776  51.8853 142.0246 0004370 283.7982 246.0489 15.14127548  4842
KUIPER-00163            
1 65777U 25217R   25331.16670139 -.00018292  00000+0 -12398-2 0  9994
2 65777  51.8776 143.2918 0010535 335.1151 198.0520 15.05489102  3361
